NORAD_CAT_ID,OBJECT_NAME,OBJECT_TYPE,EPOCH,MEAN_MOTION,ECCENTRICITY,INCLINATION,RA_OF_ASC_NODE,ARG_OF_PERICENTER,MEAN_ANOMALY,BSTAR,MEAN_MOTION_DOT,MEAN_MOTION_DDOT,TLE_LINE0,TLE_LINE1,TLE_LINE2,SEMIMAJOR_AXIS,PERIOD,APOGEE,PERIGEE,DECAYED
53623.0,STARLINK-4573,PAYLOAD,2022-09-22 22:00:00,15.73231311,0.0001557,53.2151,160.3555,119.0285,319.9597,-0.00018922,-0.00027127,0.0,0 STARLINK-4573,1 53623U 22104AM  22265.91667824 -.00027127  00000-0 -18922-3 0  9994,2 53623  53.2151 160.3555 0001557 119.0285 319.9597 15.73231311  1301,6727.806,91.531,350.718,348.62300000000016,0.0
53623.0,STARLINK-4573,PAYLOAD,2022-09-23 06:00:00,15.73135868,0.0001569,53.2164,158.7058,128.4232,39.5703,0.00066575,0.00093603,0.0,0 STARLINK-4573,1 53623U 22104AM  22266.25001157  .00093603  00000-0  66575-3 0  9990,2 53623  53.2164 158.7058 0001569 128.4232  39.5703 15.73135868  4142,6728.078,91.537,350.999,348.88699999999994,0.0
53623.0,STARLINK-4573,PAYLOAD,2022-09-23 14:00:01,15.73199378,0.000144,53.2146,157.055,133.3953,123.4875,0.00041986,0.00058716,0.0,0 STARLINK-4573,1 53623U 22104AM  22266.58334491  .00058716  00000-0  41986-3 0  9991,2 53623  53.2146 157.0550 0001440 133.3953 123.4875 15.73199378  1308,6727.897,91.533,350.731,348.793,0.0
53623.0,STARLINK-4573,PAYLOAD,2022-09-23 22:00:00,15.73226091,0.0001501,53.2149,155.407,125.1104,220.7373,-4.0109e-05,-6.252e-05,0.0,0 STARLINK-4573,1 53623U 22104AM  22266.91667824 -.00006252  00000-0 -40109-4 0  9994,2 53623  53.2149 155.4070 0001501 125.1104 220.7373 15.73226091  4248,6727.821,91.532,350.696,348.676,0.0
53623.0,STARLINK-4573,PAYLOAD,2022-09-24 14:00:01,15.73201301,0.0001636,53.215,152.1061,128.0008,35.8664,0.00064336,0.00090657,0.0,0 STARLINK-4573,1 53623U 22104AM  22267.58335648  .00090657  00000-0  64336-3 0  9991,2 53623  53.2150 152.1061 0001636 128.0008  35.8664 15.73201301  1307,6727.891,91.533,350.857,348.656,0.0
53623.0,STARLINK-4573,PAYLOAD,2022-09-24 22:00:00,15.73272821,0.0001445,53.2149,150.4583,125.4898,127.2816,-0.00070768,-0.00099086,0.0,0 STARLINK-4573,1 53623U 22104AM  22267.91667824 -.00099086  00000-0 -70768-3 0  9995,2 53623  53.2149 150.4583 0001445 125.4898 127.2816 15.73272821  4405,6727.688,91.529,350.525,348.58,0.0
53623.0,STARLINK-4573,PAYLOAD,2022-09-25 06:00:00,15.73205014,0.0001884,53.2172,148.8077,128.6285,212.9281,-3.6975e-06,-1.14e-05,0.0,0 STARLINK-4573,1 53623U 22104AM  22268.25001157 -.00001140  00000-0 -36975-5 0  9992,2 53623  53.2172 148.8077 0001884 128.6285 212.9281 15.73205014  4455,6727.880999999999,91.533,351.01300000000015,348.478,0.0
53623.0,STARLINK-4573,PAYLOAD,2022-09-25 14:00:01,15.73203653,0.0002023,53.2173,147.1562,131.6455,298.8474,-8.6696e-07,-7.43e-06,0.0,0 STARLINK-4573,1 53623U 22104AM  22268.58334491 -.00000743  00000-0 -86696-6 0  9992,2 53623  53.2173 147.1562 0002023 131.6455 298.8474 15.73203653  1301,6727.885,91.533,351.111,348.389,0.0
53623.0,STARLINK-4573,PAYLOAD,2022-09-25 22:00:01,15.7321534,0.0001133,53.2146,145.5097,136.0414,23.5847,-0.00021288,-0.00030407,0.0,0 STARLINK-4573,1 53623U 22104AM  22268.91668981 -.00030407  00000-0 -21288-3 0  9996,2 53623  53.2146 145.5097 0001133 136.0414  23.5847 15.73215340  4565,6727.851,91.532,350.47900000000016,348.954,0.0
53623.0,STARLINK-4573,PAYLOAD,2022-09-26 10:00:00,15.73140888,0.0001217999999999,53.2147,143.0343,139.7622,333.1325,0.0001614,0.00022034,0.0,0 STARLINK-4573,1 53623U 22104AM  22269.41667824  .00022034  00000-0  16140-3 0  9993,2 53623  53.2147 143.0343 0001218 139.7622 333.1325 15.73140888  4642,6728.064,91.537,350.74800000000016,349.1090000000001,0.0
53623.0,STARLINK-4573,PAYLOAD,2022-09-26 14:00:01,15.73124147,0.0001344,53.2145,142.2089,136.9709,200.3604,0.00066933,0.00094067,0.0,0 STARLINK-4573,1 53623U 22104AM  22269.58334491  .00094067  00000-0  66933-3 0  9992,2 53623  53.2145 142.2089 0001344 136.9709 200.3604 15.73124147  1308,6728.111,91.538,350.881,349.07199999999995,0.0
53623.0,STARLINK-4573,PAYLOAD,2022-09-26 22:00:00,15.73226903,0.0001247,53.2143,140.5613,121.416,304.8041,0.0001606,0.00022004,0.0,0 STARLINK-4573,1 53623U 22104AM  22269.91667824  .00022004  00000-0  16060-3 0  9996,2 53623  53.2143 140.5613 0001247 121.4160 304.8041 15.73226903  4729,6727.818,91.532,350.522,348.845,0.0
53623.0,STARLINK-4573,PAYLOAD,2022-09-27 14:00:01,15.73257855,0.0001567,53.2138,137.26,127.425,116.7538,-3.1481e-05,-5.047e-05,0.0,0 STARLINK-4573,1 53623U 22104AM  22270.58334491 -.00005047  00000-0 -31481-4 0  9997,2 53623  53.2138 137.2600 0001567 127.4250 116.7538 15.73257855  1305,6727.73,91.53,350.649,348.541,0.0
53623.0,STARLINK-4573,PAYLOAD,2022-09-27 22:00:01,15.73241259,0.0001464,53.2138,135.6122,118.8743,214.3689,0.0001901,0.00026189,0.0,0 STARLINK-4573,1 53623U 22104AM  22270.91668981  .00026189  00000-0  19010-3 0  9999,2 53623  53.2138 135.6122 0001464 118.8743 214.3689 15.73241259  4871,6727.778,91.531,350.62699999999984,348.658,0.0
53623.0,STARLINK-4573,PAYLOAD,2022-09-28 14:00:01,15.73228572,0.0001288,53.2142,132.3106,134.351,16.8132,-0.00044319,-0.00062434,0.0,0 STARLINK-4573,1 53623U 22104AM  22271.58334491 -.00062434  00000-0 -44319-3 0  9994,2 53623  53.2142 132.3106 0001288 134.3510  16.8132 15.73228572  1307,6727.814,91.532,350.545,348.81199999999984,0.0
53623.0,STARLINK-4573,PAYLOAD,2022-09-28 22:00:00,15.73168428,0.0001190999999999,53.2141,130.66299999999998,122.1589,117.9267,-0.00094037,-0.00130391,0.0,0 STARLINK-4573,1 53623U 22104AM  22271.91667824 -.00130391  00000-0 -94037-3 0  9990,2 53623  53.2141 130.6630 0001191 122.1589 117.9267 15.73168428  5032,6727.985,91.535,350.651,349.0490000000001,0.0
53623.0,STARLINK-4573,PAYLOAD,2022-09-29 06:00:00,15.73076356,0.0001193999999999,53.2136,129.0127,124.6427,204.2864,4.3451e-05,5.451e-05,0.0,0 STARLINK-4573,1 53623U 22104AM  22272.25001157  .00005451  00000-0  43451-4 0  9990,2 53623  53.2136 129.0127 0001194 124.6427 204.2864 15.73076356  5086,6728.248000000001,91.54,350.916,349.309,0.0
53623.0,STARLINK-4573,PAYLOAD,2022-09-29 14:00:01,15.73065229,0.0001463,53.2139,127.3623,128.5411,289.1679,0.0013312,0.00189381,0.0,0 STARLINK-4573,1 53623U 22104AM  22272.58334491  .00189381  00000-0  13312-2 0  9992,2 53623  53.2139 127.3623 0001463 128.5411 289.1679 15.73065229  5135,6728.279,91.541,351.129,349.16,0.0
53623.0,STARLINK-4573,PAYLOAD,2022-09-29 20:00:01,15.73191792,0.000136,53.2138,126.1269,120.94,273.4483,0.000226,0.00031204,0.0,0 STARLINK-4573,1 53623U 22104AM  22272.83335648  .00031204  00000-0  22600-3 0  9996,2 53623  53.2138 126.1269 0001360 120.9400 273.4483 15.73191792  5175,6727.919,91.534,350.699,348.869,0.0
53623.0,STARLINK-4573,PAYLOAD,2022-09-29 22:00:00,15.73192298,0.0001315999999999,53.2138,125.7149,118.7671,27.7894,0.00042544,0.00059492,0.0,0 STARLINK-4573,1 53623U 22104AM  22272.91667824  .00059492  00000-0  42544-3 0  9997,2 53623  53.2138 125.7149 0001316 118.7671  27.7894 15.73192298  1302,6727.917,91.534,350.668,348.897,0.0
53623.0,STARLINK-4573,PAYLOAD,2022-09-30 06:00:02,15.73280437,0.0001224,53.214,124.0643,125.5007,110.0575,-0.00031,-0.00044049,0.0,0 STARLINK-4573,1 53623U 22104AM  22273.25002315 -.00044049  00000-0 -31000-3 0  9992,2 53623  53.2140 124.0643 0001224 125.5007 110.0575 15.73280437  5245,6727.666,91.529,350.35400000000016,348.707,0.0
53623.0,STARLINK-4573,PAYLOAD,2022-09-30 14:00:01,15.73266155,0.0001299,53.2145,122.4134,130.132,194.3739,-0.000443,-0.00062508,0.0,0 STARLINK-4573,1 53623U 22104AM  22273.58334491 -.00062508  00000-0 -44300-3 0  9998,2 53623  53.2145 122.4134 0001299 130.1320 194.3739 15.73266155  1300,6727.706999999999,91.529,350.445,348.6980000000001,0.0
53623.0,STARLINK-4573,PAYLOAD,2022-09-30 22:00:00,15.73204035,0.0001258,53.2145,120.7658,115.4597,298.0317,0.00036559,0.00051009,0.0,0 STARLINK-4573,1 53623U 22104AM  22273.91667824  .00051009  00000-0  36559-3 0  9993,2 53623  53.2145 120.7658 0001258 115.4597 298.0317 15.73204035  1302,6727.884,91.533,350.595,348.902,0.0
53623.0,STARLINK-4573,PAYLOAD,2022-10-01 06:00:00,15.7324606,0.0001248,53.2143,119.1151,118.8134,23.6357,-0.00015328,-0.00022118,0.0,0 STARLINK-4573,1 53623U 22104AM  22274.25001157 -.00022118  00000-0 -15328-3 0  9994,2 53623  53.2143 119.1151 0001248 118.8134  23.6357 15.73246060  5408,6727.764,91.531,350.468,348.789,0.0
53623.0,STARLINK-4573,PAYLOAD,2022-10-01 14:00:01,15.73254524,0.0001399,53.2145,117.4648,127.2953,104.1059,-0.00045892,-0.00064684,0.0,0 STARLINK-4573,1 53623U 22104AM  22274.58334491 -.00064684  00000-0 -45892-3 0  9993,2 53623  53.2145 117.4648 0001399 127.2953 104.1059 15.73254524  1305,6727.74,91.53,350.546,348.664,0.0
53623.0,STARLINK-4573,PAYLOAD,2022-10-01 22:00:00,15.73191768,0.0001133,53.2145,115.8173,117.7016,202.675,-0.0002576,-0.00036601,0.0,0 STARLINK-4573,1 53623U 22104AM  22274.91667824 -.00036601  00000-0 -25760-3 0  9999,2 53623  53.2145 115.8173 0001133 117.7016 202.6750 15.73191768  1302,6727.919,91.534,350.546,349.021,0.0
53623.0,STARLINK-4573,PAYLOAD,2022-10-02 06:00:00,15.73157007,0.0001010999999999,53.2147,114.1665,127.6672,281.6231,0.00014787,0.00020144,0.0,0 STARLINK-4573,1 53623U 22104AM  22275.25001157  .00020144  00000-0  14787-3 0  9998,2 53623  53.2147 114.1665 0001011 127.6672 281.6231 15.73157007  5555,6728.018,91.536,350.56300000000016,349.20300000000015,0.0
53623.0,STARLINK-4573,PAYLOAD,2022-10-02 14:00:01,15.73200631,0.0001123,53.2152,112.5163,128.6087,9.5605,0.00028123,0.00039033,0.0,0 STARLINK-4573,1 53623U 22104AM  22275.58334491  .00039033  00000-0  28123-3 0  9990,2 53623  53.2152 112.5163 0001123 128.6087   9.5605 15.73200631  1304,6727.893,91.533,350.514,349.00300000000016,0.0
53623.0,STARLINK-4573,PAYLOAD,2022-10-02 22:00:00,15.73188813,0.0001036999999999,53.2153,110.8688,107.5244,119.6069,0.00029357,0.00040761,0.0,0 STARLINK-4573,1 53623U 22104AM  22275.91667824  .00040761  00000-0  29357-3 0  9996,2 53623  53.2153 110.8688 0001037 107.5244 119.6069 15.73188813  5660,6727.927,91.534,350.49,349.094,0.0
